NORAD_CAT_ID,OBJECT_NAME,OBJECT_TYPE,EPOCH,MEAN_MOTION,ECCENTRICITY,INCLINATION,RA_OF_ASC_NODE,ARG_OF_PERICENTER,MEAN_ANOMALY,BSTAR,MEAN_MOTION_DOT,MEAN_MOTION_DDOT,TLE_LINE0,TLE_LINE1,TLE_LINE2,SEMIMAJOR_AXIS,PERIOD,APOGEE,PERIGEE,DECAYED
53591.0,STARLINK-4674,PAYLOAD,2022-10-13 20:00:01,15.08830051,0.0001240999999999,53.2174,63.6834,105.1737,244.8452,0.00073457,0.00011419,0.0,0 STARLINK-4674,1 53591U 22104D   22286.83335648  .00011419  00000-0  73457-3 0  9997,2 53591  53.2174  63.6834 0001241 105.1737 244.8452 15.08830051  7297,6917.911,95.438,540.634,538.9169999999998,0.0
53591.0,STARLINK-4674,PAYLOAD,2022-10-13 22:00:00,15.08836501,0.0001353,53.2172,63.309,102.6016,340.2494,9.7577e-05,1.265e-05,0.0,0 STARLINK-4674,1 53591U 22104D   22286.91667824  .00001265  00000-0  97577-4 0  9998,2 53591  53.2172  63.3090 0001353 102.6016 340.2494 15.08836501  1301,6917.891,95.438,540.692,538.82,0.0
53591.0,STARLINK-4674,PAYLOAD,2022-10-14 14:00:01,15.08836852,0.0001395,53.2174,60.3159,100.8377,5.1982,-1.6935e-05,-5.57e-06,0.0,0 STARLINK-4674,1 53591U 22104D   22287.58334491 -.00000557  00000-0 -16935-4 0  9997,2 53591  53.2174  60.3159 0001395 100.8377   5.1982 15.08836852  1300,6917.89,95.438,540.72,538.79,0.0
53591.0,STARLINK-4674,PAYLOAD,2022-10-14 20:00:01,15.08835235,0.0001344,53.2174,59.1943,98.3025,286.4275,0.00022945,3.365e-05,0.0,0 STARLINK-4674,1 53591U 22104D   22287.83334491  .00003365  00000-0  22945-3 0  9990,2 53591  53.2174  59.1943 0001344  98.3025 286.4275 15.08835235  1305,6917.895,95.438,540.69,538.83,0.0
53591.0,STARLINK-4674,PAYLOAD,2022-10-15 14:00:01,15.08826024,0.0001308,53.2135,55.8248,97.0116,43.8964,-0.00029367,-4.957e-05,0.0,0 STARLINK-4674,1 53591U 22104D   22288.58334491 -.00004957  00000-0 -29367-3 0  9998,2 53591  53.2135  55.8248 0001308  97.0116  43.8964 15.08826024  1306,6917.9230000000025,95.438,540.693,538.883,0.0
53591.0,STARLINK-4674,PAYLOAD,2022-10-15 22:00:01,15.08952699,0.0001431,53.2152,54.33,89.0341,63.5091,-0.020683,-0.00316252,0.0,0 STARLINK-4674,1 53591U 22104D   22288.91668981 -.00316252  00000-0 -20683-1 0  9993,2 53591  53.2152  54.3300 0001431  89.0341  63.5091 15.08952699  1304,6917.536,95.43,540.391,538.411,0.0
53591.0,STARLINK-4674,PAYLOAD,2022-10-16 14:00:01,15.08832579,0.000131,53.2139,51.3356,93.1715,82.4739,-0.0029094,-0.00046284,0.0,0 STARLINK-4674,1 53591U 22104D   22289.58334491 -.00046284  00000-0 -29094-2 0  9994,2 53591  53.2139  51.3356 0001310  93.1715  82.4739 15.08832579  1307,6917.903,95.438,540.674,538.862,0.0
53591.0,STARLINK-4674,PAYLOAD,2022-10-16 22:00:00,15.08818616,0.0001207,53.2143,49.8395,88.3087,98.8987,0.00024664,3.637e-05,0.0,0 STARLINK-4674,1 53591U 22104D   22289.91667824  .00003637  00000-0  24664-3 0  9992,2 53591  53.2143  49.8395 0001207  88.3087  98.8987 15.08818616  7757,6917.946,95.439,540.646,538.976,0.0
53591.0,STARLINK-4674,PAYLOAD,2022-10-17 14:00:01,15.08862729,0.0001286,53.215,46.8471,88.4826,121.8969,-0.0014936,-0.00023994,0.0,0 STARLINK-4674,1 53591U 22104D   22290.58334491 -.00023994  00000-0 -14936-2 0  9998,2 53591  53.2150  46.8471 0001286  88.4826 121.8969 15.08862729  7858,6917.811,95.436,540.566,538.786,0.0
53591.0,STARLINK-4674,PAYLOAD,2022-10-17 22:00:00,15.08855323,0.0001320999999999,53.2142,45.3497,88.0302,133.9438,-0.0039752,-0.00063026,0.0,0 STARLINK-4674,1 53591U 22104D   22290.91667824 -.00063026  00000-0 -39752-2 0  9997,2 53591  53.2142  45.3497 0001321  88.0302 133.9438 15.08855323  1307,6917.834,95.437,540.612,538.785,0.0
53591.0,STARLINK-4674,PAYLOAD,2022-10-18 14:00:01,15.08828765,0.0001404,53.2144,42.3571,88.9762,156.1552,0.00015406,2.164e-05,0.0,0 STARLINK-4674,1 53591U 22104D   22291.58334491  .00002164  00000-0  15406-3 0  9997,2 53591  53.2144  42.3571 0001404  88.9762 156.1552 15.08828765  1304,6917.915,95.438,540.751,538.808,0.0
53591.0,STARLINK-4674,PAYLOAD,2022-10-18 22:00:00,15.08865638,0.0001294,53.2142,40.8602,88.6413,168.0657,-0.0033174,-0.00052734,0.0,0 STARLINK-4674,1 53591U 22104D   22291.91667824 -.00052734  00000-0 -33174-2 0  9994,2 53591  53.2142  40.8602 0001294  88.6413 168.0657 15.08865638  1305,6917.802,95.436,540.562,538.7719999999998,0.0
53591.0,STARLINK-4674,PAYLOAD,2022-10-19 14:00:01,15.08834944,0.0001246,53.2143,37.8678,88.3199,191.5764,0.00029698,4.441e-05,0.0,0 STARLINK-4674,1 53591U 22104D   22292.58334491  .00004441  00000-0  29698-3 0  9996,2 53591  53.2143  37.8678 0001246  88.3199 191.5764 15.08834944  1306,6917.896,95.438,540.623,538.899,0.0
53591.0,STARLINK-4674,PAYLOAD,2022-10-19 22:00:00,15.08858946,0.0001308,53.2156,36.3726,86.0752,205.4078,-0.00070132,-0.00011438,0.0,0 STARLINK-4674,1 53591U 22104D   22292.91667824 -.00011438  00000-0 -70132-3 0  9997,2 53591  53.2156  36.3726 0001308  86.0752 205.4078 15.08858946  1308,6917.821999999999,95.436,540.592,538.783,0.0
53591.0,STARLINK-4674,PAYLOAD,2022-10-20 14:00:01,15.08847808,0.0001365,53.2147,33.3794,87.0911,227.5955,-0.00056216,-9.225e-05,0.0,0 STARLINK-4674,1 53591U 22104D   22293.58334491 -.00009225  00000-0 -56216-3 0  9990,2 53591  53.2147  33.3794 0001365  87.0911 227.5955 15.08847808  1305,6917.857,95.437,540.6659999999998,538.7769999999998,0.0
53591.0,STARLINK-4674,PAYLOAD,2022-10-20 22:00:00,15.08849064,0.0001353,53.2143,31.8817,87.7627,238.5203,-0.0029092,-0.00046302,0.0,0 STARLINK-4674,1 53591U 22104D   22293.91667824 -.00046302  00000-0 -29092-2 0  9994,2 53591  53.2143  31.8817 0001353  87.7627 238.5203 15.08849064  1302,6917.853,95.437,540.654,538.7819999999998,0.0
53591.0,STARLINK-4674,PAYLOAD,2022-10-21 14:00:01,15.08848148,0.0001446,53.2146,28.8902,85.3588,264.1172,0.00045786,7.008e-05,0.0,0 STARLINK-4674,1 53591U 22104D   22294.58334491  .00007008  00000-0  45786-3 0  9996,2 53591  53.2146  28.8902 0001446  85.3588 264.1172 15.08848148  1301,6917.855,95.437,540.721,538.72,0.0
53591.0,STARLINK-4674,PAYLOAD,2022-10-21 22:00:00,15.08875953,0.0001245,53.2137,27.3918,87.2894,273.7791,-0.0057449,-0.00090657,0.0,0 STARLINK-4674,1 53591U 22104D   22294.91667824 -.00090657  00000-0 -57449-2 0  9994,2 53591  53.2137  27.3918 0001245  87.2894 273.7791 15.08875953  1318,6917.77,95.435,540.497,538.774,0.0
53591.0,STARLINK-4674,PAYLOAD,2022-10-22 06:00:00,15.088076199999998,0.0001202,53.214,25.8945,94.5007,278.1693,0.0024559,0.00038979,0.0,0 STARLINK-4674,1 53591U 22104D   22295.25001157  .00038979  00000-0  24559-2 0  9996,2 53591  53.2140  25.8945 0001202  94.5007 278.1693 15.08807620  8565,6917.979,95.44,540.6759999999998,539.013,0.0
53591.0,STARLINK-4674,PAYLOAD,2022-10-22 14:00:01,15.08819366,0.000123,53.2141,24.3999,82.564,301.6753,0.0011691,0.00018357,0.0,0 STARLINK-4674,1 53591U 22104D   22295.58334491  .00018357  00000-0  11691-2 0  9993,2 53591  53.2141  24.3999 0001230  82.5640 301.6753 15.08819366  1304,6917.943,95.439,540.659,538.9580000000002,0.0
53591.0,STARLINK-4674,PAYLOAD,2022-10-22 22:00:00,15.08861213,0.0001155,53.2141,22.9025,83.1342,312.6881,-0.00064968,-0.00010619,0.0,0 STARLINK-4674,1 53591U 22104D   22295.91667824 -.00010619  00000-0 -64968-3 0  9990,2 53591  53.2141  22.9025 0001155  83.1342 312.6881 15.08861213  1302,6917.816,95.436,540.48,538.882,0.0
53591.0,STARLINK-4674,PAYLOAD,2022-10-23 06:00:00,15.08875427,0.0001158,53.2144,21.4053,90.4613,316.9769,0.00076353,0.00011896,0.0,0 STARLINK-4674,1 53591U 22104D   22296.25001157  .00011896  00000-0  76353-3 0  9996,2 53591  53.2144  21.4053 0001158  90.4613 316.9769 15.08875427  8711,6917.772,95.435,540.438,538.836,0.0
53591.0,STARLINK-4674,PAYLOAD,2022-10-23 14:00:01,15.08847977,0.0001147,53.2145,19.9106,77.8268,341.2526,0.0010244,0.00016056,0.0,0 STARLINK-4674,1 53591U 22104D   22296.58334491  .00016056  00000-0  10244-2 0  9991,2 53591  53.2145  19.9106 0001147  77.8268 341.2526 15.08847977  1305,6917.856,95.437,540.514,538.928,0.0
53591.0,STARLINK-4674,PAYLOAD,2022-10-23 22:00:00,15.08885422,0.0001071,53.2147,18.413,79.9902,350.6956,-0.0058645,-0.00092537,0.0,0 STARLINK-4674,1 53591U 22104D   22296.91667824 -.00092537  00000-0 -58645-2 0  9994,2 53591  53.2147  18.4130 0001071  79.9902 350.6956 15.08885422  8813,6917.7419999999975,95.435,540.347,538.866,0.0
53591.0,STARLINK-4674,PAYLOAD,2022-10-24 14:00:01,15.08752772,0.0001294,53.215,15.4214,76.4638,17.3963,0.0046597,0.00074477,0.0,0 STARLINK-4674,1 53591U 22104D   22297.58334491  .00074477  00000-0  46597-2 0  9993,2 53591  53.2150  15.4214 0001294  76.4638  17.3963 15.08752772  8919,6918.147,95.443,540.9069999999998,539.117,0.0
53591.0,STARLINK-4674,PAYLOAD,2022-10-24 22:00:00,15.08825346,0.0001277,53.2151,13.9239,81.0609,24.3164,-0.000869,-0.00014086,0.0,0 STARLINK-4674,1 53591U 22104D   22297.91667824 -.00014086  00000-0 -86900-3 0  9994,2 53591  53.2151  13.9239 0001277  81.0609  24.3164 15.08825346  1306,6917.925,95.438,540.674,538.9069999999998,0.0
53591.0,STARLINK-4674,PAYLOAD,2022-10-25 14:00:01,15.08817288,0.0001325,53.2152,10.9325,75.1194,53.4096,0.0021488,0.00034054,0.0,0 STARLINK-4674,1 53591U 22104D   22298.58334491  .00034054  00000-0  21488-2 0  9993,2 53591  53.2152  10.9325 0001325  75.1194  53.4096 15.08817288  1300,6917.95,95.439,540.731,538.898,0.0
53591.0,STARLINK-4674,PAYLOAD,2022-10-25 22:00:01,15.08850333,0.0001234,53.2151,9.4348,81.2549,58.9201,-0.00067845,-0.00011072,0.0,0 STARLINK-4674,1 53591U 22104D   22298.91668981 -.00011072  00000-0 -67845-3 0  9999,2 53591  53.2151   9.4348 0001234  81.2549  58.9201 15.08850333  1304,6917.849,95.437,540.567,538.86,0.0
53591.0,STARLINK-4674,PAYLOAD,2022-10-26 14:00:01,15.08857749,0.000134,53.215,6.4433,74.4265,88.906,-0.00043728,-7.244e-05,0.0,0 STARLINK-4674,1 53591U 22104D   22299.58334491 -.00007244  00000-0 -43728-3 0  9999,2 53591  53.2150   6.4433 0001340  74.4265  88.9060 15.08857749  1306,6917.826,95.436,540.618,538.764,0.0
